{
  "links" : {
    "next" : "https://api.nasa.gov/neo/rest/v1/feed?start_date=2013-02-23&end_date=2013-02-23&detailed=true&api_key=t0TVs3DtDT2H8Oy2Zy8m2eVrNsAVKAexjcZXUckd",
    "prev" : "https://api.nasa.gov/neo/rest/v1/feed?start_date=2013-02-21&end_date=2013-02-21&detailed=true&api_key=t0TVs3DtDT2H8Oy2Zy8m2eVrNsAVKAexjcZXUckd",
    "self" : "https://api.nasa.gov/neo/rest/v1/feed?start_date=2013-02-22&end_date=2013-02-22&detailed=true&api_key=t0TVs3DtDT2H8Oy2Zy8m2eVrNsAVKAexjcZXUckd"
  },
  "element_count" : 6,
  "near_earth_objects" : {
    "2013-02-22" : [ {
      "links" : {
        "self" : "https://api.nasa.gov/neo/rest/v1/neo/3445077?api_key=t0TVs3DtDT2H8Oy2Zy8m2eVrNsAVKAexjcZXUckd"
      },
      "neo_reference_id" : "3445077",
      "name" : "(2009 BM58)",
      "nasa_jpl_url" : "http://ssd.jpl.nasa.gov/sbdb.cgi?sstr=3445077",
      "absolute_magnitude_h" : 24.2,
      "estimated_diameter" : {
        "kilometers" : {
          "estimated_diameter_min" : 0.0384197891,
          "estimated_diameter_max" : 0.0859092601
        },
        "meters" : {
          "estimated_diameter_min" : 38.4197891064,
          "estimated_diameter_max" : 85.9092601232
        },
        "miles" : {
          "estimated_diameter_min" : 0.0238729428,
          "estimated_diameter_max" : 0.0533815229
        },
        "feet" : {
          "estimated_diameter_min" : 126.0491808919,
          "estimated_diameter_max" : 281.8545369825
        }
      },
      "is_potentially_hazardous_asteroid" : false,
      "close_approach_data" : [ {
        "close_approach_date" : "2013-02-22",
        "epoch_date_close_approach" : 1361520000000,
        "relative_velocity" : {
          "kilometers_per_second" : "14.7411289991",
          "kilometers_per_hour" : "53068.0643969105",
          "miles_per_hour" : "32974.4314581803"
        },
        "miss_distance" : {
          "astronomical" : "0.2813875973",
          "lunar" : "109.459777832",
          "kilometers" : "42094984",
          "miles" : "26156612"
        },
        "orbiting_body" : "Earth"
      } ],
      "orbital_data" : {
        "orbit_id" : "12",
        "orbit_determination_date" : "2017-04-06 09:01:31",
        "orbit_uncertainty" : "7",
        "minimum_orbit_intersection" : ".0731359",
        "jupiter_tisserand_invariant" : "3.171",
        "epoch_osculation" : "2458000.5",
        "eccentricity" : ".5885778631432043",
        "semi_major_axis" : "2.541589831342185",
        "inclination" : "6.051993858201193",
        "ascending_node_longitude" : "319.6266112003276",
        "orbital_period" : "1479.982646950328",
        "perihelion_distance" : "1.045666319424305",
        "perihelion_argument" : "155.5944120529737",
        "aphelion_distance" : "4.037513343260065",
        "perihelion_time" : "2457805.123401807954",
        "mean_anomaly" : "47.52459462553224",
        "mean_motion" : ".2432460953118747",
        "equinox" : "J2000"
      }
    }, {
      "links" : {
        "self" : "https://api.nasa.gov/neo/rest/v1/neo/3742883?api_key=t0TVs3DtDT2H8Oy2Zy8m2eVrNsAVKAexjcZXUckd"
      },
      "neo_reference_id" : "3742883",
      "name" : "(2016 CM137)",
      "nasa_jpl_url" : "http://ssd.jpl.nasa.gov/sbdb.cgi?sstr=3742883",
      "absolute_magnitude_h" : 25.8,
      "estimated_diameter" : {
        "kilometers" : {
          "estimated_diameter_min" : 0.0183888672,
          "estimated_diameter_max" : 0.0411187571
        },
        "meters" : {
          "estimated_diameter_min" : 18.388867207,
          "estimated_diameter_max" : 41.1187571041
        },
        "miles" : {
          "estimated_diameter_min" : 0.0114263088,
          "estimated_diameter_max" : 0.0255500032
        },
        "feet" : {
          "estimated_diameter_min" : 60.3309310875,
          "estimated_diameter_max" : 134.9040630575
        }
      },
      "is_potentially_hazardous_asteroid" : false,
      "close_approach_data" : [ {
        "close_approach_date" : "2013-02-22",
        "epoch_date_close_approach" : 1361520000000,
        "relative_velocity" : {
          "kilometers_per_second" : "18.0911965959",
          "kilometers_per_hour" : "65128.3077451295",
          "miles_per_hour" : "40468.1976653"
        },
        "miss_distance" : {
          "astronomical" : "0.2619509575",
          "lunar" : "101.8989257812",
          "kilometers" : "39187308",
          "miles" : "24349864"
        },
        "orbiting_body" : "Earth"
      } ],
      "orbital_data" : {
        "orbit_id" : "8",
        "orbit_determination_date" : "2017-04-06 08:28:26",
        "orbit_uncertainty" : "7",
        "minimum_orbit_intersection" : ".000279101",
        "jupiter_tisserand_invariant" : "3.564",
        "epoch_osculation" : "2458000.5",
        "eccentricity" : ".5551809357311803",
        "semi_major_axis" : "2.066931946592134",
        "inclination" : "3.188368245118666",
        "ascending_node_longitude" : "308.0014553481824",
        "orbital_period" : "1085.394692418605",
        "perihelion_distance" : ".919410734390443",
        "perihelion_argument" : "145.1745763413275",
        "aphelion_distance" : "3.214453158793825",
        "perihelion_time" : "2458477.505766891764",
        "mean_anomaly" : "201.7883583911916",
        "mean_motion" : ".3316765804315898",
        "equinox" : "J2000"
      }
    }, {
      "links" : {
        "self" : "https://api.nasa.gov/neo/rest/v1/neo/2209215?api_key=t0TVs3DtDT2H8Oy2Zy8m2eVrNsAVKAexjcZXUckd"
      },
      "neo_reference_id" : "2209215",
      "name" : "209215 (2003 WP25)",
      "nasa_jpl_url" : "http://ssd.jpl.nasa.gov/sbdb.cgi?sstr=2209215",
      "absolute_magnitude_h" : 24.2,
      "estimated_diameter" : {
        "kilometers" : {
          "estimated_diameter_min" : 0.0384197891,
          "estimated_diameter_max" : 0.0859092601
        },
        "meters" : {
          "estimated_diameter_min" : 38.4197891064,
          "estimated_diameter_max" : 85.9092601232
        },
        "miles" : {
          "estimated_diameter_min" : 0.0238729428,
          "estimated_diameter_max" : 0.0533815229
        },
        "feet" : {
          "estimated_diameter_min" : 126.0491808919,
          "estimated_diameter_max" : 281.8545369825
        }
      },
      "is_potentially_hazardous_asteroid" : false,
      "close_approach_data" : [ {
        "close_approach_date" : "2013-02-22",
        "epoch_date_close_approach" : 1361520000000,
        "relative_velocity" : {
          "kilometers_per_second" : "16.528257264",
          "kilometers_per_hour" : "59501.726150414",
          "miles_per_hour" : "36972.0586738503"
        },
        "miss_distance" : {
          "astronomical" : "0.4104250721",
          "lunar" : "159.6553497314",
          "kilometers" : "61398716",
          "miles" : "38151392"
        },
        "orbiting_body" : "Earth"
      } ],
      "orbital_data" : {
        "orbit_id" : "23",
        "orbit_determination_date" : "2017-04-06 09:25:27",
        "orbit_uncertainty" : "1",
        "minimum_orbit_intersection" : ".0223369",
        "jupiter_tisserand_invariant" : "6.126",
        "epoch_osculation" : "2458000.5",
        "eccentricity" : ".1210463763734535",
        "semi_major_axis" : ".9889007909809722",
        "inclination" : "2.561980310222299",
        "ascending_node_longitude" : "40.76996508539975",
        "orbital_period" : "359.1927095144085",
        "perihelion_distance" : ".8691979336398835",
        "perihelion_argument" : "226.4150054207777",
        "aphelion_distance" : "1.108603648322061",
        "perihelion_time" : "2457858.100290258996",
        "mean_anomaly" : "142.7197550197077",
        "mean_motion" : "1.002247513560848",
        "equinox" : "J2000"
      }
    } ]
  }
}